start=new Date('2021-12-05T00:00:00.000Z').valueOf();
sats=[{"PERIOD":"95.592","OBJECT_ID":"2021-017AA","OBJECT_TYPE":"PAYLOAD","OBJECT_NAME":"STARLINK-2160","NORAD_CAT_ID":"47746","MEAN_ANOMALY":"302.4385","BSTAR":"0.00003372600000","PERIAPSIS":"546.083","EPOCH":"2021-12-04T18:28:46.545024","DECAY_DATE":null,"EPHEMERIS_TYPE":"0","RCS_SIZE":"LARGE","TIME_SYSTEM":"UTC","MEAN_ELEMENT_THEORY":"SGP4","ARG_OF_PERICENTER":"57.6761","MEAN_MOTION_DDOT":"0.0000000000000","TLE_LINE1":"1 47746U 21017AA  21338.76998316  .00000221  00000-0  33726-4 0  9995","ECCENTRICITY":"0.00016270","TLE_LINE2":"2 47746  53.0562 356.4029 0001627  57.6761 302.4385 15.06401377 43206","REV_AT_EPOCH":"4320","CLASSIFICATION_TYPE":"U","REF_FRAME":"TEME","CENTER_NAME":"EARTH","INCLINATION":"53.0562","FILE":"3232651","SEMIMAJOR_AXIS":"6925.344","MEAN_MOTION":"15.06401377","SITE":"AFETR","GP_ID":"191104331","LAUNCH_DATE":"2021-03-04","MEAN_MOTION_DOT":"0.00000221","ELEMENT_SET_NO":"999","COUNTRY_CODE":"US","RA_OF_ASC_NODE":"356.4029","APOAPSIS":"548.336"},{"CENTER_NAME":"EARTH","REF_FRAME":"TEME","INCLINATION":"53.0562","TLE_LINE2":"2 47747  53.0562 346.4346 0001664  57.4744 302.6406 15.06384699 43380","REV_AT_EPOCH":"4338","CLASSIFICATION_TYPE":"U","ECCENTRICITY":"0.00016640","ARG_OF_PERICENTER":"57.4744","TLE_LINE1":"1 47747U 21017AB  21338.76722981 -.00000398  00000-0 -78163-5 0  9991","MEAN_MOTION_DDOT":"0.0000000000000","COUNTRY_CODE":"US","RA_OF_ASC_NODE":"346.4346","APOAPSIS":"548.413","MEAN_MOTION_DOT":"-0.00000398","ELEMENT_SET_NO":"999","FILE":"3232651","SEMIMAJOR_AXIS":"6925.395","MEAN_MOTION":"15.06384699","GP_ID":"191103079","SITE":"AFETR","LAUNCH_DATE":"2021-03-04","MEAN_ANOMALY":"302.6406","OBJECT_NAME":"STARLINK-2161","NORAD_CAT_ID":"47747","OBJECT_TYPE":"PAYLOAD","OBJECT_ID":"2021-017AB","PERIOD":"95.593","TIME_SYSTEM":"UTC","RCS_SIZE":"LARGE","MEAN_ELEMENT_THEORY":"SGP4","EPOCH":"2021-12-04T18:24:48.655584","EPHEMERIS_TYPE":"0","DECAY_DATE":null,"PERIAPSIS":"546.108","BSTAR":"-0.00000781630000"},{"CLASSIFICATION_TYPE":"U","REV_AT_EPOCH":"4335","TLE_LINE2":"2 47748  53.0560 346.4696 0001607  59.4797 300.6350 15.06387557 43353","INCLINATION":"53.0560","REF_FRAME":"TEME","CENTER_NAME":"EARTH","MEAN_MOTION_DDOT":"0.0000000000000","TLE_LINE1":"1 47748U 21017AC  21338.75986391 -.00000206  00000-0  50950-5 0  9999","ARG_OF_PERICENTER":"59.4797","ECCENTRICITY":"0.00016070","APOAPSIS":"548.365","COUNTRY_CODE":"US","RA_OF_ASC_NODE":"346.4696","SITE":"AFETR","GP_ID":"191102830","LAUNCH_DATE":"2021-03-04","SEMIMAJOR_AXIS":"6925.387","FILE":"3232651","MEAN_MOTION":"15.06387557","ELEMENT_SET_NO":"999","MEAN_MOTION_DOT":"-0.00000206","NORAD_CAT_ID":"47748","OBJECT_NAME":"STARLINK-2162","MEAN_ANOMALY":"300.6350","PERIOD":"95.593","OBJECT_ID":"2021-017AC","OBJECT_TYPE":"PAYLOAD","DECAY_DATE":null,"EPHEMERIS_TYPE":"0","EPOCH":"2021-12-04T18:14:12.241824","MEAN_ELEMENT_THEORY":"SGP4","RCS_SIZE":"LARGE","TIME_SYSTEM":"UTC","BSTAR":"0.00000509500000","PERIAPSIS":"546.139"},{"REV_AT_EPOCH":"4330","TLE_LINE2":"2 47749  53.0571 347.8723 0001595  71.5095 288.6068 15.06388909 43302","CLASSIFICATION_TYPE":"U","CENTER_NAME":"EARTH","REF_FRAME":"TEME","INCLINATION":"53.0571","ARG_OF_PERICENTER":"71.5095","TLE_LINE1":"1 47749U 21017AD  21338.44286954 -.00001565  00000-0 -86239-4 0  9992","MEAN_MOTION_DDOT":"0.0000000000000","ECCENTRICITY":"0.00015950","COUNTRY_CODE":"US","RA_OF_ASC_NODE":"347.8723","APOAPSIS":"548.352","SEMIMAJOR_AXIS":"6925.383","FILE":"3232651","MEAN_MOTION":"15.06388909","GP_ID":"191103581","SITE":"AFETR","LAUNCH_DATE":"2021-03-04","MEAN_MOTION_DOT":"-0.00001565","ELEMENT_SET_NO":"999","OBJECT_NAME":"STARLINK-2163","NORAD_CAT_ID":"47749","MEAN_ANOMALY":"288.6068","OBJECT_TYPE":"PAYLOAD","PERIOD":"95.593","OBJECT_ID":"2021-017AD","EPOCH":"2021-12-04T10:37:43.928256","EPHEMERIS_TYPE":"0","DECAY_DATE":null,"TIME_SYSTEM":"UTC","RCS_SIZE":"LARGE","MEAN_ELEMENT_THEORY":"SGP4","BSTAR":"-0.00008623900000","PERIAPSIS":"546.143"},{"ECCENTRICITY":"0.00009940","ARG_OF_PERICENTER":"67.5878","TLE_LINE1":"1 47750U 21017AE  21338.75246121 -.00021961  00000-0 -14566-2 0  9994","MEAN_MOTION_DDOT":"0.0000000000000","CENTER_NAME":"EARTH","REF_FRAME":"TEME","INCLINATION":"53.0575","TLE_LINE2":"2 47750  53.0575 346.4964 0000994  67.5878 292.5216 15.06485852 43355","REV_AT_EPOCH":"4335","CLASSIFICATION_TYPE":"U","MEAN_MOTION_DOT":"-0.00021961","ELEMENT_SET_NO":"999","FILE":"3232651","MEAN_MOTION":"15.06485852","SEMIMAJOR_AXIS":"6925.085","LAUNCH_DATE":"2021-03-04","GP_ID":"191103832","SITE":"AFETR","RA_OF_ASC_NODE":"346.4964","COUNTRY_CODE":"US","APOAPSIS":"547.639","OBJECT_TYPE":"PAYLOAD","OBJECT_ID":"2021-017AE","PERIOD":"95.587","MEAN_ANOMALY":"292.5216","OBJECT_NAME":"STARLINK-2164","NORAD_CAT_ID":"47750","PERIAPSIS":"546.262","BSTAR":"-0.00145660000000","RCS_SIZE":"LARGE","TIME_SYSTEM":"UTC","MEAN_ELEMENT_THEORY":"SGP4","EPOCH":"2021-12-04T18:03:32.648544","EPHEMERIS_TYPE":"0","DECAY_DATE":null},{"FILE":"3232651","MEAN_MOTION":"15.06401070","SEMIMAJOR_AXIS":"6925.345","GP_ID":"191102580","SITE":"AFETR","LAUNCH_DATE":"2021-03-04","MEAN_MOTION_DOT":"-0.00000085","ELEMENT_SET_NO":"999","COUNTRY_CODE":"US","RA_OF_ASC_NODE":"336.6469","APOAPSIS":"548.259","ARG_OF_PERICENTER":"57.0519","TLE_LINE1":"1 47751U 21017AF  21338.71653845 -.00000085  00000-0  13194-4 0  9997","MEAN_MOTION_DDOT":"0.0000000000000","ECCENTRICITY":"0.00015140","TLE_LINE2":"2 47751  53.0531 336.6469 0001514  57.0519 303.0615 15.06401070 43490","REV_AT_EPOCH":"4349","CLASSIFICATION_TYPE":"U","CENTER_NAME":"EARTH","REF_FRAME":"TEME","INCLINATION":"53.0531","BSTAR":"0.00001319400000","PERIAPSIS":"546.162","EPOCH":"2021-12-04T17:11:48.922080","EPHEMERIS_TYPE":"0","DECAY_DATE":null,"TIME_SYSTEM":"UTC","RCS_SIZE":"LARGE","MEAN_ELEMENT_THEORY":"SGP4","OBJECT_TYPE":"PAYLOAD","OBJECT_ID":"2021-017AF","PERIOD":"95.592","OBJECT_NAME":"STARLINK-2168","NORAD_CAT_ID":"47751","MEAN_ANOMALY":"303.0615"},{"CENTER_NAME":"EARTH","REF_FRAME":"TEME","INCLINATION":"53.0565","REV_AT_EPOCH":"4333","TLE_LINE2":"2 47752  53.0565 351.5145 0001395  57.3546 302.7578 15.06394225 43335","CLASSIFICATION_TYPE":"U","ECCENTRICITY":"0.00013950","ARG_OF_PERICENTER":"57.3546","TLE_LINE1":"1 47752U 21017AG  21338.75018384 -.00001645  00000-0 -91602-4 0  9999","MEAN_MOTION_DDOT":"0.0000000000000","COUNTRY_CODE":"US","RA_OF_ASC_NODE":"351.5145","APOAPSIS":"548.197","MEAN_MOTION_DOT":"-0.00001645","ELEMENT_SET_NO":"999","MEAN_MOTION":"15.06394225","FILE":"3232651","SEMIMAJOR_AXIS":"6925.366","LAUNCH_DATE":"2021-03-04","GP_ID":"191103330","SITE":"AFETR","MEAN_ANOMALY":"302.7578","OBJECT_NAME":"STARLINK-2169","NORAD_CAT_ID":"47752","OBJECT_TYPE":"PAYLOAD","PERIOD":"95.593","OBJECT_ID":"2021-017AG","TIME_SYSTEM":"UTC","RCS_SIZE":"MEDIUM","MEAN_ELEMENT_THEORY":"SGP4","EPOCH":"2021-12-04T18:00:15.883776","EPHEMERIS_TYPE":"0","DECAY_DATE":null,"PERIAPSIS":"546.265","BSTAR":"-0.00009160200000"},{"SITE":"AFETR","GP_ID":"191104081","LAUNCH_DATE":"2021-03-04","SEMIMAJOR_AXIS":"6925.395","FILE":"3232651","MEAN_MOTION":"15.06384732","ELEMENT_SET_NO":"999","MEAN_MOTION_DOT":"0.00000060","APOAPSIS":"548.426","COUNTRY_CODE":"US","RA_OF_ASC_NODE":"356.3048","TLE_LINE1":"1 47753U 21017AH  21338.79211316  .00000060  00000-0  22967-4 0  9990","MEAN_MOTION_DDOT":"0.0000000000000","ARG_OF_PERICENTER":"64.9373","ECCENTRICITY":"0.00016830","CLASSIFICATION_TYPE":"U","TLE_LINE2":"2 47753  53.0569 356.3048 0001683  64.9373 295.1791 15.06384732 43263","REV_AT_EPOCH":"4326","INCLINATION":"53.0569","CENTER_NAME":"EARTH","REF_FRAME":"TEME","BSTAR":"0.00002296700000","PERIAPSIS":"546.095","EPHEMERIS_TYPE":"0","DECAY_DATE":null,"EPOCH":"2021-12-04T19:00:38.577024","MEAN_ELEMENT_THEORY":"SGP4","RCS_SIZE":"LARGE","TIME_SYSTEM":"UTC","OBJECT_TYPE":"PAYLOAD","OBJECT_ID":"2021-017AH","PERIOD":"95.593","NORAD_CAT_ID":"47753","OBJECT_NAME":"STARLINK-2170","MEAN_ANOMALY":"295.1791"},{"ECCENTRICITY":"0.00014950","MEAN_MOTION_DDOT":"0.0000000000000","TLE_LINE1":"1 47754U 21017AJ  21338.76262659  .00000309  00000-0  39666-4 0  9994","ARG_OF_PERICENTER":"58.9629","INCLINATION":"53.0568","REF_FRAME":"TEME","CENTER_NAME":"EARTH","CLASSIFICATION_TYPE":"U","TLE_LINE2":"2 47754  53.0568 356.4461 0001495  58.9629 301.1507 15.06394374 43223","REV_AT_EPOCH":"4322","ELEMENT_SET_NO":"999","MEAN_MOTION_DOT":"0.00000309","GP_ID":"191104332","LAUNCH_DATE":"2021-03-04","SITE":"AFETR","SEMIMAJOR_AXIS":"6925.366","FILE":"3232651","MEAN_MOTION":"15.06394374","APOAPSIS":"548.266","COUNTRY_CODE":"US","RA_OF_ASC_NODE":"356.4461","PERIOD":"95.592","OBJECT_ID":"2021-017AJ","OBJECT_TYPE":"PAYLOAD","MEAN_ANOMALY":"301.1507","NORAD_CAT_ID":"47754","OBJECT_NAME":"STARLINK-2171","PERIAPSIS":"546.195","BSTAR":"0.00003966600000","MEAN_ELEMENT_THEORY":"SGP4","RCS_SIZE":"LARGE","TIME_SYSTEM":"UTC","DECAY_DATE":null,"EPHEMERIS_TYPE":"0","EPOCH":"2021-12-04T18:18:10.937376"},{"DECAY_DATE":null,"EPHEMERIS_TYPE":"0","EPOCH":"2021-12-04T20:57:22.678560","MEAN_ELEMENT_THEORY":"SGP4","TIME_SYSTEM":"UTC","RCS_SIZE":"LARGE","BSTAR":"0.00803710000000","PERIAPSIS":"536.129","NORAD_CAT_ID":"47755","OBJECT_NAME":"STARLINK-2172","MEAN_ANOMALY":"298.7841","PERIOD":"95.384","OBJECT_ID":"2021-017AK","OBJECT_TYPE":"PAYLOAD","APOAPSIS":"538.230","COUNTRY_CODE":"US","RA_OF_ASC_NODE":"350.8598","LAUNCH_DATE":"2021-03-04","GP_ID":"191103080","SITE":"AFETR","FILE":"3232651","SEMIMAJOR_AXIS":"6915.315","MEAN_MOTION":"15.09679753","ELEMENT_SET_NO":"999","MEAN_MOTION_DOT":"0.00133092","CLASSIFICATION_TYPE":"U","REV_AT_EPOCH":"4330","TLE_LINE2":"2 47755  53.0549 350.8598 0001519  61.3302 298.7841 15.09679753 43306","INCLINATION":"53.0549","REF_FRAME":"TEME","CENTER_NAME":"EARTH","MEAN_MOTION_DDOT":"0.0000000000000","TLE_LINE1":"1 47755U 21017AK  21338.87317915  .00133092  00000-0  80371-2 0  9996","ARG_OF_PERICENTER":"61.3302","ECCENTRICITY":"0.00015190"}];
